[{"OBJECT_NAME":"STARLINK-6260","OBJECT_ID":"2023-061AU","EPOCH":"2026-03-08T13:59:33.624384","MEAN_MOTION":15.02527641,"ECCENTRICITY":0.0001585,"INCLINATION":43.0055,"RA_OF_ASC_NODE":177.8685,"ARG_OF_PERICENTER":278.7098,"MEAN_ANOMALY":81.3565,"EPHEMERIS_TYPE":0,"CLASSIFICATION_TYPE":"U","NORAD_CAT_ID":56416,"ELEMENT_SET_NO":999,"REV_AT_EPOCH":15688,"BSTAR":0.00011443709,"MEAN_MOTION_DOT":1.342e-5,"MEAN_MOTION_DDOT":0},{"OBJECT_NAME":"GEESAT-2 06","OBJECT_ID":"2024-023F","EPOCH":"2026-03-09T23:05:26.548512","MEAN_MOTION":15.0311163,"ECCENTRICITY":0.0006403,"INCLINATION":49.9884,"RA_OF_ASC_NODE":54.2248,"ARG_OF_PERICENTER":18.468,"MEAN_ANOMALY":341.6498,"EPHEMERIS_TYPE":0,"CLASSIFICATION_TYPE":"U","NORAD_CAT_ID":58910,"ELEMENT_SET_NO":999,"REV_AT_EPOCH":11471,"BSTAR":0.00060492991,"MEAN_MOTION_DOT":8.006e-5,"MEAN_MOTION_DDOT":0}]
